{"type": "FeatureCollection", "features": [{"type": "Feature", "properties": {"norad_id": 24876, "name": "GPS BIIR-2  (PRN 13)", "group": "gnss", "lat": 50.89787199522094, "lon": -130.7823011250491, "alt_km": 20022.06506177035, "timestamp": "2025-12-19T20:43:00.327268+00:00", "meta": {"OBJECT_NAME": "GPS BIIR-2  (PRN 13)", "OBJECT_ID": "1997-035A", "EPOCH": "2025-12-19T05:08:27.852000", "MEAN_MOTION": 2.00563748, "ECCENTRICITY": 0.00967886, "INCLINATION": 55.8984, "RA_OF_ASC_NODE": 105.6157, "ARG_OF_PERICENTER": 56.9687, "MEAN_ANOMALY": 303.9293, "EPHEMERIS_TYPE": 0, "CLASSIFICATION_TYPE": "U", "NORAD_CAT_ID": 24876, "ELEMENT_SET_NO": 999, "REV_AT_EPOCH": 20834, "BSTAR": 0, "MEAN_MOTION_DOT": -1.6e-07, "MEAN_MOTION_DDOT": 0}, "tle": {"line1": "1 24876U 97035A   25353.21421125 -.00000016  00000+0  00000+0 0  9993", "line2": "2 24876  55.8984 105.6157 0096788  56.9687 303.9293  2.00563748208343"}}, "geometry": {"type": "Point", "coordinates": [-130.7823011250491, 50.89787199522094]}}, {"type": "Feature", "properties": {"norad_id": 26360, "name": "GPS BIIR-4  (PRN 20)", "group": "gnss", "lat": -17.261016822237043, "lon": -140.88588295532563, "alt_km": 20106.509763430397, "timestamp": "2025-12-19T20:43:00.327314+00:00", "meta": {"OBJECT_NAME": "GPS BIIR-4  (PRN 20)", "OBJECT_ID": "2000-025A", "EPOCH": "2025-12-19T04:51:32.040288", "MEAN_MOTION": 2.00567271, "ECCENTRICITY": 0.00388899, "INCLINATION": 55.049, "RA_OF_ASC_NODE": 26.5765, "ARG_OF_PERICENTER": 242.5944, "MEAN_ANOMALY": 201.8395, "EPHEMERIS_TYPE": 0, "CLASSIFICATION_TYPE": "U", "NORAD_CAT_ID": 26360, "ELEMENT_SET_NO": 999, "REV_AT_EPOCH": 18766, "BSTAR": 0, "MEAN_MOTION_DOT": -7e-07, "MEAN_MOTION_DDOT": 0}, "tle": {"line1": "1 26360U 00025A   25353.20245417 -.00000070  00000+0  00000+0 0  9993", "line2": "2 26360  55.0490  26.5765 0038889 242.5944 201.8395  2.00567271187665"}}, "geometry": {"type": "Point", "coordinates": [-140.88588295532563, -17.261016822237043]}}, {"type": "Feature", "properties": {"norad_id": 26407, "name": "GPS BIIR-5  (PRN 22)", "group": "gnss", "lat": 33.55258305165993, "lon": -109.90137743058926, "alt_km": 20234.66780462485, "timestamp": "2025-12-19T20:43:00.327332+00:00", "meta": {"OBJECT_NAME": "GPS BIIR-5  (PRN 22)", "OBJECT_ID": "2000-040A", "EPOCH": "2025-12-19T01:29:47.262048", "MEAN_MOTION": 2.00568111, "ECCENTRICITY": 0.01256711, "INCLINATION": 54.8893, "RA_OF_ASC_NODE": 222.3176, "ARG_OF_PERICENTER": 301.916, "MEAN_ANOMALY": 241.001, "EPHEMERIS_TYPE": 0, "CLASSIFICATION_TYPE": "U", "NORAD_CAT_ID": 26407, "ELEMENT_SET_NO": 999, "REV_AT_EPOCH": 18633, "BSTAR": 0, "MEAN_MOTION_DOT": 7.5e-07, "MEAN_MOTION_DDOT": 0}, "tle": {"line1": "1 26407U 00040A   25353.06235257  .00000075  00000+0  00000+0 0  9991", "line2": "2 26407  54.8893 222.3176 0125671 301.9160 241.0010  2.00568111186336"}}, "geometry": {"type": "Point", "coordinates": [-109.90137743058926, 33.55258305165993]}}, {"type": "Feature", "properties": {"norad_id": 27663, "name": "GPS BIIR-8  (PRN 16)", "group": "gnss", "lat": 1.2609353659359537, "lon": 41.221893975372225, "alt_km": 20411.81889062573, "timestamp": "2025-12-19T20:43:00.327346+00:00", "meta": {"OBJECT_NAME": "GPS BIIR-8  (PRN 16)", "OBJECT_ID": "2003-005A", "EPOCH": "2025-12-19T06:45:51.439104", "MEAN_MOTION": 2.00570603, "ECCENTRICITY": 0.01476858, "INCLINATION": 54.9218, "RA_OF_ASC_NODE": 222.118, "ARG_OF_PERICENTER": 51.8908, "MEAN_ANOMALY": 65.4619, "EPHEMERIS_TYPE": 0, "CLASSIFICATION_TYPE": "U", "NORAD_CAT_ID": 27663, "ELEMENT_SET_NO": 999, "REV_AT_EPOCH": 16770, "BSTAR": 0, "MEAN_MOTION_DOT": 7.6e-07, "MEAN_MOTION_DDOT": 0}, "tle": {"line1": "1 27663U 03005A   25353.28184536  .00000076  00000+0  00000+0 0  9998", "line2": "2 27663  54.9218 222.1180 0147685  51.8908  65.4619  2.00570603167708"}}, "geometry": {"type": "Point", "coordinates": [41.221893975372225, 1.2609353659359537]}}, {"type": "Feature", "properties": {"norad_id": 28190, "name": "GPS BIIR-11 (PRN 19)", "group": "gnss", "lat": -19.593487504973176, "lon": -91.51599699663527, "alt_km": 20467.279984962468, "timestamp": "2025-12-19T20:43:00.327360+00:00", "meta": {"OBJECT_NAME": "GPS BIIR-11 (PRN 19)", "OBJECT_ID": "2004-009A", "EPOCH": "2025-12-18T01:19:43.105728", "MEAN_MOTION": 2.00560667, "ECCENTRICITY": 0.01084092, "INCLINATION": 54.9808, "RA_OF_ASC_NODE": 283.0048, "ARG_OF_PERICENTER": 167.7197, "MEAN_ANOMALY": 302.5438, "EPHEMERIS_TYPE": 0, "CLASSIFICATION_TYPE": "U", "NORAD_CAT_ID": 28190, "ELEMENT_SET_NO": 999, "REV_AT_EPOCH": 15931, "BSTAR": 0, "MEAN_MOTION_DOT": -5.1e-07, "MEAN_MOTION_DDOT": 0}, "tle": {"line1": "1 28190U 04009A   25352.05536002 -.00000051  00000+0  00000+0 0  9996", "line2": "2 28190  54.9808 283.0048 0108409 167.7197 302.5438  2.00560667159317"}}, "geometry": {"type": "Point", "coordinates": [-91.51599699663527, -19.593487504973176]}}, {"type": "Feature", "properties": {"norad_id": 28474, "name": "GPS BIIR-13 (PRN 02)", "group": "gnss", "lat": 30.288626917424278, "lon": -3.9704499689795614, "alt_km": 20157.873404532973, "timestamp": "2025-12-19T20:43:00.327373+00:00", "meta": {"OBJECT_NAME": "GPS BIIR-13 (PRN 02)", "OBJECT_ID": "2004-045A", "EPOCH": "2025-12-19T06:56:25.037952", "MEAN_MOTION": 2.00569921, "ECCENTRICITY": 0.01708861, "INCLINATION": 55.2374, "RA_OF_ASC_NODE": 332.1423, "ARG_OF_PERICENTER": 309.5384, "MEAN_ANOMALY": 31.8922, "EPHEMERIS_TYPE": 0, "CLASSIFICATION_TYPE": "U", "NORAD_CAT_ID": 28474, "ELEMENT_SET_NO": 999, "REV_AT_EPOCH": 15481, "BSTAR": 0, "MEAN_MOTION_DOT": -8.2e-07, "MEAN_MOTION_DDOT": 0}, "tle": {"line1": "1 28474U 04045A   25353.28917868 -.00000082  00000+0  00000+0 0  9994", "line2": "2 28474  55.2374 332.1423 0170886 309.5384  31.8922  2.00569921154811"}}, "geometry": {"type": "Point", "coordinates": [-3.9704499689795614, 30.288626917424278]}}, {"type": "Feature", "properties": {"norad_id": 28874, "name": "GPS BIIRM-1 (PRN 17)", "group": "gnss", "lat": -2.9968670154704626, "lon": -81.69772435605202, "alt_km": 20017.027338148335, "timestamp": "2025-12-19T20:43:00.327387+00:00", "meta": {"OBJECT_NAME": "GPS BIIRM-1 (PRN 17)", "OBJECT_ID": "2005-038A", "EPOCH": "2025-12-19T02:51:41.554944", "MEAN_MOTION": 2.00578076, "ECCENTRICITY": 0.01314439, "INCLINATION": 55.0262, "RA_OF_ASC_NODE": 280.4441, "ARG_OF_PERICENTER": 293.6931, "MEAN_ANOMALY": 244.1239, "EPHEMERIS_TYPE": 0, "CLASSIFICATION_TYPE": "U", "NORAD_CAT_ID": 28874, "ELEMENT_SET_NO": 999, "REV_AT_EPOCH": 14822, "BSTAR": 0, "MEAN_MOTION_DOT": -3.7e-07, "MEAN_MOTION_DDOT": 0}, "tle": {"line1": "1 28874U 05038A   25353.11923096 -.00000037  00000+0  00000+0 0  9993", "line2": "2 28874  55.0262 280.4441 0131443 293.6931 244.1239  2.00578076148220"}}, "geometry": {"type": "Point", "coordinates": [-81.69772435605202, -2.9968670154704626]}}, {"type": "Feature", "properties": {"norad_id": 28899, "name": "INMARSAT 4-F2 (SOUTHPAN/PRN 122)", "group": "gnss", "lat": 3.171852671166586, "lon": -176.9679460362024, "alt_km": 35785.229748866856, "timestamp": "2025-12-19T20:43:00.327402+00:00", "meta": {"OBJECT_NAME": "INMARSAT 4-F2 (SOUTHPAN/PRN 122)", "OBJECT_ID": "2005-044A", "EPOCH": "2025-12-18T22:32:16.506816", "MEAN_MOTION": 1.00272525, "ECCENTRICITY": 0.00024643, "INCLINATION": 4.8591, "RA_OF_ASC_NODE": 43.7031, "ARG_OF_PERICENTER": 227.4907, "MEAN_ANOMALY": 298.1734, "EPHEMERIS_TYPE": 0, "CLASSIFICATION_TYPE": "U", "NORAD_CAT_ID": 28899, "ELEMENT_SET_NO": 999, "REV_AT_EPOCH": 7371, "BSTAR": 0, "MEAN_MOTION_DOT": -2.4e-06, "MEAN_MOTION_DDOT": 0}, "tle": {"line1": "1 28899U 05044A   25352.93907994 -.00000240  00000+0  00000+0 0  9991", "line2": "2 28899   4.8591  43.7031 0002464 227.4907 298.1734  1.00272525 73716"}}, "geometry": {"type": "Point", "coordinates": [-176.9679460362024, 3.171852671166586]}}, {"type": "Feature", "properties": {"norad_id": 29486, "name": "GPS BIIRM-2 (PRN 31)", "group": "gnss", "lat": -52.668274738202896, "lon": 46.81651904444653, "alt_km": 20446.5631707087, "timestamp": "2025-12-19T20:43:00.327416+00:00", "meta": {"OBJECT_NAME": "GPS BIIRM-2 (PRN 31)", "OBJECT_ID": "2006-042A", "EPOCH": "2025-12-18T13:15:57.668256", "MEAN_MOTION": 2.00553965, "ECCENTRICITY": 0.01073199, "INCLINATION": 54.6948, "RA_OF_ASC_NODE": 158.5101, "ARG_OF_PERICENTER": 52.102, "MEAN_ANOMALY": 339.2959, "EPHEMERIS_TYPE": 0, "CLASSIFICATION_TYPE": "U", "NORAD_CAT_ID": 29486, "ELEMENT_SET_NO": 999, "REV_AT_EPOCH": 14077, "BSTAR": 0, "MEAN_MOTION_DOT": 7.3e-07, "MEAN_MOTION_DDOT": 0}, "tle": {"line1": "1 29486U 06042A   25352.55275079  .00000073  00000+0  00000+0 0  9996", "line2": "2 29486  54.6948 158.5101 0107319  52.1020 339.2959  2.00553965140773"}}, "geometry": {"type": "Point", "coordinates": [46.81651904444653, -52.668274738202896]}}, {"type": "Feature", "properties": {"norad_id": 29601, "name": "GPS BIIRM-3 (PRN 12)", "group": "gnss", "lat": -35.454233288728226, "lon": -168.8254857097721, "alt_km": 20342.416869489167, "timestamp": "2025-12-19T20:43:00.327429+00:00", "meta": {"OBJECT_NAME": "GPS BIIRM-3 (PRN 12)", "OBJECT_ID": "2006-052A", "EPOCH": "2025-12-18T22:17:39.799968", "MEAN_MOTION": 2.00574079, "ECCENTRICITY": 0.0087942, "INCLINATION": 54.9692, "RA_OF_ASC_NODE": 221.1525, "ARG_OF_PERICENTER": 87.5066, "MEAN_ANOMALY": 273.5974, "EPHEMERIS_TYPE": 0, "CLASSIFICATION_TYPE": "U", "NORAD_CAT_ID": 29601, "ELEMENT_SET_NO": 999, "REV_AT_EPOCH": 13979, "BSTAR": 0, "MEAN_MOTION_DOT": 7.7e-07, "MEAN_MOTION_DDOT": 0}, "tle": {"line1": "1 29601U 06052A   25352.92893287  .00000077  00000+0  00000+0 0  9998", "line2": "2 29601  54.9692 221.1525 0087942  87.5066 273.5974  2.00574079139795"}}, "geometry": {"type": "Point", "coordinates": [-168.8254857097721, -35.454233288728226]}}]}